NORAD_CAT_ID,OBJECT_NAME,OBJECT_TYPE,EPOCH,MEAN_MOTION,ECCENTRICITY,INCLINATION,RA_OF_ASC_NODE,ARG_OF_PERICENTER,MEAN_ANOMALY,BSTAR,MEAN_MOTION_DOT,MEAN_MOTION_DDOT,TLE_LINE0,TLE_LINE1,TLE_LINE2,SEMIMAJOR_AXIS,PERIOD,APOGEE,PERIGEE,DECAYED
52361.0,STARLINK-3728,PAYLOAD,2023-01-09 07:28:07,15.08839081,0.000183,53.2146,345.8219,69.4123,290.7065,5.0979e-05,5.23e-06,0.0,0 STARLINK-3728,1 52361U 22045AG  23009.31119937  .00000523  00000-0  50979-4 0  9992,2 52361  53.2146 345.8219 0001830  69.4123 290.7065 15.08839081 41365,6917.883000000002,95.438,541.014,538.482,0.0
52361.0,STARLINK-3728,PAYLOAD,2023-01-09 15:25:03,15.08836837,0.0001873,53.2144,344.3346,74.7815,285.3385,-6.8749e-06,-3.98e-06,0.0,0 STARLINK-3728,1 52361U 22045AG  23009.64240066 -.00000398  00000-0 -68749-5 0  9993,2 52361  53.2144 344.3346 0001873  74.7815 285.3385 15.08836837 41419,6917.89,95.438,541.0509999999998,538.4590000000002,0.0
52361.0,STARLINK-3728,PAYLOAD,2023-01-09 21:46:36,15.08836805,0.0001764,53.215,343.1458,74.5165,285.6022,5.871e-05,6.46e-06,0.0,0 STARLINK-3728,1 52361U 22045AG  23009.90736403  .00000646  00000-0  58710-4 0  9997,2 52361  53.2150 343.1458 0001764  74.5165 285.6022 15.08836805 41452,6917.89,95.438,540.975,538.535,0.0
52361.0,STARLINK-3728,PAYLOAD,2023-01-10 07:18:54,15.08845045,0.0001591,53.2164,341.3608,81.3855,278.7317,8.7292e-05,1.102e-05,0.0,0 STARLINK-3728,1 52361U 22045AG  23010.30479653  .00001102  00000-0  87292-4 0  9999,2 52361  53.2164 341.3608 0001591  81.3855 278.7317 15.08845045 41517,6917.865,95.437,540.831,538.629,0.0
52361.0,STARLINK-3728,PAYLOAD,2023-01-10 21:37:22,15.08837634,0.0001463,53.2151,338.686,83.4049,276.711,9.9664e-05,1.298e-05,0.0,0 STARLINK-3728,1 52361U 22045AG  23010.90096002  .00001298  00000-0  99664-4 0  9990,2 52361  53.2151 338.6860 0001463  83.4049 276.7110 15.08837634 41602,6917.888000000001,95.438,540.765,538.741,0.0
52361.0,STARLINK-3728,PAYLOAD,2023-01-11 03:58:55,15.08842589,0.0001494,53.2148,337.4976,80.0945,280.0215,0.00013119,1.801e-05,0.0,0 STARLINK-3728,1 52361U 22045AG  23011.16591627  .00001801  00000-0  13119-3 0  9992,2 52361  53.2148 337.4976 0001494  80.0945 280.0215 15.08842589 41648,6917.871999999999,95.437,540.771,538.7040000000002,0.0
52361.0,STARLINK-3728,PAYLOAD,2023-01-11 21:28:10,15.08839948,0.0001855,53.2159,334.2272,78.9032,281.2168,4.4152e-05,4.15e-06,0.0,0 STARLINK-3728,1 52361U 22045AG  23011.89456219  .00000415  00000-0  44152-4 0  9991,2 52361  53.2159 334.2272 0001855  78.9032 281.2168 15.08839948 41755,6917.880999999999,95.438,541.029,538.462,0.0
52361.0,STARLINK-3728,PAYLOAD,2023-01-12 03:49:42,15.08838087,0.0001628,53.2163,333.0358,84.2085,275.9093,9.2311e-05,1.181e-05,0.0,0 STARLINK-3728,1 52361U 22045AG  23012.15952078  .00001181  00000-0  92311-4 0  9996,2 52361  53.2163 333.0358 0001628  84.2085 275.9093 15.08838087 41792,6917.886,95.438,540.877,538.625,0.0
52361.0,STARLINK-3728,PAYLOAD,2023-01-12 21:18:56,15.08843597,0.0001602,53.2158,329.7644,85.5133,274.6042,3.2927e-05,2.36e-06,0.0,0 STARLINK-3728,1 52361U 22045AG  23012.88815909  .00000236  00000-0  32927-4 0  9994,2 52361  53.2158 329.7644 0001602  85.5133 274.6042 15.08843597 41901,6917.8690000000015,95.437,540.8430000000002,538.626,0.0
52361.0,STARLINK-3728,PAYLOAD,2023-01-13 03:40:28,15.08854882,0.0001359,53.2159,328.5757,85.9235,274.1912,0.00013897,1.925e-05,0.0,0 STARLINK-3728,1 52361U 22045AG  23013.15310758  .00001925  00000-0  13897-3 0  9997,2 52361  53.2159 328.5757 0001359  85.9235 274.1912 15.08854882 41944,6917.835,95.437,540.64,538.76,0.0
52361.0,STARLINK-3728,PAYLOAD,2023-01-14 03:31:16,15.08844089,0.0001422,53.2166,324.1147,95.4327,264.6827,0.00013124,1.802e-05,0.0,0 STARLINK-3728,1 52361U 22045AG  23014.14671623  .00001802  00000-0  13124-3 0  9995,2 52361  53.2166 324.1147 0001422  95.4327 264.6827 15.08844089 42090,6917.868,95.437,540.717,538.749,0.0
52361.0,STARLINK-3728,PAYLOAD,2023-01-14 22:35:54,15.08836445,0.0001449,53.2172,320.5461,82.5687,277.547,-0.00010819,-2.009e-05,0.0,0 STARLINK-3728,1 52361U 22045AG  23014.94160724 -.00002009  00000-0 -10819-3 0  9998,2 52361  53.2172 320.5461 0001449  82.5687 277.5470 15.08836445 42219,6917.891,95.438,540.759,538.754,0.0
52361.0,STARLINK-3728,PAYLOAD,2023-01-15 04:57:26,15.08847708,0.0001415,53.2155,319.3571,93.2446,266.8708,3.4162e-05,2.56e-06,0.0,0 STARLINK-3728,1 52361U 22045AG  23015.20655652  .00000256  00000-0  34162-4 0  9995,2 52361  53.2155 319.3571 0001415  93.2446 266.8708 15.08847708 42256,6917.857,95.437,540.701,538.743,0.0
52361.0,STARLINK-3728,PAYLOAD,2023-01-16 03:12:48,15.08867715,0.000113,53.2164,315.1934,81.8348,278.2772,0.00023801,3.505e-05,0.0,0 STARLINK-3728,1 52361U 22045AG  23016.13389735  .00003505  00000-0  23801-3 0  9991,2 52361  53.2164 315.1934 0001130  81.8348 278.2772 15.08867715 42394,6917.795999999999,95.436,540.442,538.879,0.0
52361.0,STARLINK-3728,PAYLOAD,2023-01-16 12:45:08,15.08844544,0.0001225,53.2169,313.4104,102.74,257.3729,6.212399999999999e-05,7.01e-06,0.0,0 STARLINK-3728,1 52361U 22045AG  23016.53135328  .00000701  00000-0  62124-4 0  9999,2 52361  53.2169 313.4104 0001225 102.7400 257.3729 15.08844544 42458,6917.866,95.437,540.5790000000001,538.884,0.0
52361.0,STARLINK-3728,PAYLOAD,2023-01-16 23:52:52,15.08818908,0.0001252999999999,53.2172,311.3272,94.132,265.9815,-1.9848e-05,-6.03e-06,0.0,0 STARLINK-3728,1 52361U 22045AG  23016.99505496 -.00000603  00000-0 -19848-4 0  9994,2 52361  53.2172 311.3272 0001253  94.1320 265.9815 15.08818908 42525,6917.945,95.439,540.677,538.943,0.0
52361.0,STARLINK-3728,PAYLOAD,2023-01-17 12:35:57,15.088302300000002,0.0001283,53.2167,308.9487,88.2117,271.9022,-7.2137e-05,-1.435e-05,0.0,0 STARLINK-3728,1 52361U 22045AG  23017.52497259 -.00001435  00000-0 -72137-4 0  9995,2 52361  53.2167 308.9487 0001283  88.2117 271.9022 15.08830230 42608,6917.91,95.438,540.663,538.888,0.0
52361.0,STARLINK-3728,PAYLOAD,2023-01-18 01:19:02,15.08840273,0.0001179,53.2165,306.5692,86.5483,273.5643,-0.00013776,-2.48e-05,0.0,0 STARLINK-3728,1 52361U 22045AG  23018.05489091 -.00002480  00000-0 -13776-3 0  9993,2 52361  53.2165 306.5692 0001179  86.5483 273.5643 15.08840273 42682,6917.88,95.438,540.56,538.929,0.0
52361.0,STARLINK-3728,PAYLOAD,2023-01-18 12:26:43,15.08850857,0.0001249,53.2174,304.4867,83.4292,276.6842,-4.9305e-05,-1.073e-05,0.0,0 STARLINK-3728,1 52361U 22045AG  23018.51856073 -.00001073  00000-0 -49305-4 0  9997,2 52361  53.2174 304.4867 0001249  83.4292 276.6842 15.08850857 42757,6917.847,95.437,540.576,538.8480000000001,0.0
52361.0,STARLINK-3728,PAYLOAD,2023-01-19 12:17:31,15.08838824,0.0001239,53.2155,300.0256,83.9524,276.1609,0.0002215999999999,3.241e-05,0.0,0 STARLINK-3728,1 52361U 22045AG  23019.51217094  .00003241  00000-0  22160-3 0  9998,2 52361  53.2155 300.0256 0001239  83.9524 276.1609 15.08838824 42905,6917.884,95.438,540.606,538.8919999999999,0.0
52361.0,STARLINK-3728,PAYLOAD,2023-01-20 02:36:00,15.08831076,0.0001388,53.2146,297.3501,75.9076,284.207,-2.8597e-05,-7.43e-06,0.0,0 STARLINK-3728,1 52361U 22045AG  23020.10833893 -.00000743  00000-0 -28597-4 0  9993,2 52361  53.2146 297.3501 0001388  75.9076 284.2070 15.08831076 42997,6917.908,95.438,540.7330000000001,538.812,0.0
52361.0,STARLINK-3728,PAYLOAD,2023-01-20 21:40:37,15.08846779,0.0001386999999999,53.2142,293.7839,62.1304,297.9828,0.00015833,2.233e-05,0.0,0 STARLINK-3728,1 52361U 22045AG  23020.90321385  .00002233  00000-0  15833-3 0  9991,2 52361  53.2142 293.7839 0001387  62.1304 297.9828 15.08846779 43111,6917.86,95.437,540.684,538.765,0.0
52361.0,STARLINK-3728,PAYLOAD,2023-01-21 04:02:09,15.088628,0.0001347,53.2146,292.5929,70.5395,289.5743,0.00079509,0.00012396,0.0,0 STARLINK-3728,1 52361U 22045AG  23021.16816946  .00012396  00000-0  79509-3 0  9993,2 52361  53.2146 292.5929 0001347  70.5395 289.5743 15.08862800 43151,6917.811,95.436,540.6080000000001,538.744,0.0
52361.0,STARLINK-3728,PAYLOAD,2023-01-21 10:23:42,15.08849408,7.26e-05,53.2158,291.4042,75.592,284.5153,0.00044616,6.822e-05,0.0,0 STARLINK-3728,1 52361U 22045AG  23021.43313164  .00006822  00000-0  44616-3 0  9995,2 52361  53.2158 291.4042 0000726  75.5920 284.5153 15.08849408 43190,6917.852,95.437,540.219,539.214,0.0
52361.0,STARLINK-3728,PAYLOAD,2023-01-22 02:17:33,15.08866353,0.0001478,53.2153,288.4284,88.7784,271.3378,0.00068646,0.00010662,0.0,0 STARLINK-3728,1 52361U 22045AG  23022.09552587  .00010662  00000-0  68646-3 0  9998,2 52361  53.2153 288.4284 0001478  88.7784 271.3378 15.08866353 43290,6917.8,95.436,540.687,538.6419999999999,0.0
52361.0,STARLINK-3728,PAYLOAD,2023-01-22 18:11:25,15.08839217,0.0001266,53.215,285.4581,79.2765,280.837,0.0001969,2.847e-05,0.0,0 STARLINK-3728,1 52361U 22045AG  23022.75793190  .00002847  00000-0  19690-3 0  9999,2 52361  53.2150 285.4581 0001266  79.2765 280.8370 15.08839217 43390,6917.883000000001,95.438,540.624,538.872,0.0
52361.0,STARLINK-3728,PAYLOAD,2023-01-24 01:59:07,15.08866353,0.0001198,53.2136,279.5101,74.6164,285.496,0.0010042,0.00015741,0.0,0 STARLINK-3728,1 52361U 22045AG  23024.08272759  .00015741  00000-0  10042-2 0  9998,2 52361  53.2136 279.5101 0001198  74.6164 285.4960 15.08866353 43591,6917.8,95.436,540.494,538.836,0.0
52361.0,STARLINK-3728,PAYLOAD,2023-01-25 01:49:55,15.08847463,0.0001252,53.213,275.0495,84.6893,275.4242,0.00059089,9.13e-05,0.0,0 STARLINK-3728,1 52361U 22045AG  23025.07633247  .00009130  00000-0  59089-3 0  9991,2 52361  53.2130 275.0495 0001252  84.6893 275.4242 15.08847463 43743,6917.858,95.437,540.589,538.856,0.0
52361.0,STARLINK-3728,PAYLOAD,2023-01-25 09:46:51,15.08829807,0.0001453,53.2129,273.5623,78.8467,281.2688,0.00033207,4.999e-05,0.0,0 STARLINK-3728,1 52361U 22045AG  23025.40753793  .00004999  00000-0  33207-3 0  9999,2 52361  53.2129 273.5623 0001453  78.8467 281.2688 15.08829807 43798,6917.911999999999,95.438,540.7819999999999,538.771,0.0
